ONEWEB-0027             
1 45432U 20020J   23241.36948648  .00000208  00000+0  50347-3 0  9993
2 45432  87.9118 209.1150 0002163  74.7121 285.4250 13.17649204171660
ONEWEB-0064             
1 45433U 20020K   23240.89289259 -.00000215  00000+0 -64307-3 0  9998
2 45433  87.8903 224.3320 0002311  80.1412 279.9977 13.11415271168567
ONEWEB-0018             
1 45434U 20020L   23240.84837627 -.00000083  00000+0 -27004-3 0  9998
2 45434  87.8913 224.3269 0001992  92.5330 267.6026 13.11419311168503
ONEWEB-0083             
1 45435U 20020M   23240.68518473 -.00000536  00000+0 -15493-2 0  9997
2 45435  87.8904 224.3483 0001994  83.3168 276.8187 13.11418524168528
ONEWEB-0095             
1 45436U 20020N   23240.91039031 -.00000493  00000+0 -14255-2 0  9999
2 45436  87.8912 224.3381 0001934  77.9721 282.1624 13.11420122168559
ONEWEB-0092             
1 45437U 20020P   23241.02429939  .00000497  00000+0  13653-2 0  9996
2 45437  87.8910 224.2922 0001874  79.8817 280.2522 13.11417595168688
ONEWEB-0085             
1 45438U 20020Q   23240.67882654 -.00000655  00000+0 -18834-2 0  9998
2 45438  87.8904 224.3717 0002199  89.2828 270.8551 13.11416585168521
ONEWEB-0096             
1 45439U 20020R   23240.91620665 -.00000347  00000+0 -10159-2 0  9998
2 45439  87.8904 224.2996 0002073  94.8903 265.2461 13.11417299168540
